{"type":"FeatureCollection","name":"Bhote Koshi exercise geographic context","features":[{"type":"Feature","id":"geo-000001","geometry":{"type":"MultiLineString","coordinates":[[[85.986754,28.0491181],[85.986516,28.048677],[85.9864664,28.048056],[85.9861276,28.0475492],[85.9857029,28.0470106],[85.9853648,28.0467376],[85.9849437,28.046616],[85.984753,28.0464347],[85.9847181,28.046059],[85.9844432,28.0457243],[85.9844527,28.0452985],[85.98451,28.0448888],[85.9845711,28.0444564],[85.9846512,28.0441538],[85.9845451,28.044039],[85.9841553,28.0439805],[85.9840395,28.0438359],[85.9840167,28.0436209],[85.9840754,28.0434406],[85.9843067,28.0432182],[85.9843617,28.0429548],[85.9842567,28.0425603],[85.9842025,28.0423236],[85.9843404,28.0421513],[85.9843111,28.0418983],[85.98406,28.0415075],[85.9837907,28.0410889],[85.9832264,28.0406172],[85.9832038,28.0400131],[85.9833105,28.0397238],[85.9834414,28.0393692],[85.9838211,28.039107],[85.9839051,28.0386304],[85.9845555,28.0380813],[85.9847026,28.0374523],[85.9852229,28.0371078],[85.9852738,28.0367933],[85.985715,28.036354],[85.985896,28.0356751],[85.9859016,28.0351409],[85.9859796,28.0343912],[85.9858655,28.0337986],[85.9855684,28.0334244],[85.9856025,28.0329629],[85.9853979,28.0321574],[85.9855807,28.0318626],[85.9858072,28.0313131],[85.9856913,28.0306729],[85.9855326,28.0299588],[85.9848202,28.0290818],[85.9841797,28.0276793],[85.9837773,28.026842],[85.9837323,28.0256667],[85.9836733,28.0246382],[85.9832203,28.0239357],[85.9825382,28.0231825],[85.9820415,28.0224864],[85.9813776,28.0211496],[85.9810498,28.0200475],[85.9804578,28.0191889],[85.979686,28.0185269],[85.9788064,28.0182658],[85.9780334,28.0181771],[85.9776748,28.0179617],[85.9771275,28.0175361],[85.9768999,28.0172678],[85.9765824,28.0170667],[85.9764285,28.0168262],[85.9763369,28.0165196],[85.9765787,28.0150352],[85.9763048,28.0148826],[85.9764492,28.0143121],[85.9763057,28.0137177],[85.975878,28.0132591],[85.9754945,28.0129629],[85.975,28.0124366],[85.9745361,28.0120512],[85.9741737,28.0114768],[85.9739439,28.0110014],[85.9736878,28.0105517],[85.9735535,28.0098615],[85.9735817,28.0094226],[85.973461,28.0091591],[85.9734425,28.0089469],[85.9733277,28.0084057],[85.973419,28.0080463],[85.9734732,28.0078387],[85.9737307,28.0078245],[85.9739506,28.0079098],[85.9741813,28.0078529],[85.974315,28.0076846],[85.974412,28.0073035],[85.9741849,28.0069116],[85.9739494,28.0063653],[85.9737106,28.0056968],[85.9736111,28.0051808],[85.9733272,28.0042538],[85.9732711,28.0036797],[85.9731949,28.0030508],[85.9731328,28.002781],[85.9732912,28.001936],[85.9736158,28.0014422],[85.973673,28.0012299],[85.9737302,28.0010176],[85.973766,28.0003385],[85.9744033,27.9993336],[85.9746101,27.9984491],[85.9754941,27.9980372],[85.9761296,27.9973569],[85.9767309,27.9969531],[85.9769893,27.9964576],[85.9764753,27.9945845],[85.9768618,27.9934979],[85.9770686,27.9931307],[85.9782628,27.9920326],[85.9782594,27.9918308],[85.9780257,27.9913927],[85.9779283,27.9910729],[85.978652,27.9905621],[85.9786439,27.9903039],[85.9783621,27.989917],[85.9782893,27.9892267],[85.9779705,27.9882764],[85.9774183,27.9874089],[85.976636,27.9862816],[85.9752611,27.9852202],[85.9744706,27.9844119],[85.9728879,27.9829595],[85.971611,27.9821616],[85.9710698,27.9812659],[85.9697172,27.9800874],[85.9690017,27.9791811],[85.9688573,27.9784414],[85.9675719,27.9772276],[85.9667083,27.9767601],[85.9659139,27.9764972],[85.9652817,27.975832],[85.9648465,27.9750641],[85.9643439,27.9744391],[85.9642142,27.9742684],[85.9641122,27.9740464],[85.9639819,27.9737036],[85.9639674,27.9735192],[85.9639874,27.9732257],[85.9640796,27.9730601],[85.9636075,27.9724281],[85.9633599,27.9721454],[85.9630803,27.9719025],[85.9624533,27.9713411],[85.9616182,27.9706934],[85.9610427,27.9704133],[85.9605264,27.9699136],[85.9603649,27.9695557],[85.9601124,27.9691073],[85.9598708,27.9686109],[85.9594768,27.9678795],[85.9593223,27.967536],[85.9590877,27.9671487],[85.9584109,27.9656964],[85.9585195,27.9650319],[85.9584548,27.9644892],[85.9583711,27.9644363],[85.9583501,27.9641091],[85.9584431,27.9636195],[85.9585155,27.9628329],[85.9578218,27.961369],[85.9577861,27.9612936],[85.9574074,27.9606278],[85.9580631,27.959173],[85.9581132,27.9590365],[85.9580223,27.9587168],[85.957673,27.9583704],[85.9575215,27.9582371],[85.9573478,27.9579579],[85.957208,27.957577],[85.9572224,27.9569718],[85.9571874,27.9567364],[85.9568134,27.9566292],[85.9558874,27.9562403],[85.9555426,27.9556289],[85.9550183,27.954569],[85.9548703,27.9538337]],[[85.9548703,27.9538337],[85.9540379,27.9522598],[85.9530807,27.95053],[85.9528185,27.9498045],[85.9530015,27.9490852],[85.9528447,27.9483662],[85.9523593,27.9476137],[85.9516388,27.94654],[85.9508045,27.9456187],[85.9502898,27.9450544],[85.9492219,27.9439424],[85.948783,27.9436106],[85.9484086,27.9430893],[85.9478608,27.9427379],[85.9473854,27.9417762],[85.9472851,27.9415678],[85.9468209,27.9406523],[85.9458649,27.9396372],[85.945644,27.9393179]],[[85.945644,27.9393179],[85.9454744,27.9390423],[85.9452504,27.9385776],[85.9451083,27.938409],[85.9448385,27.9380703],[85.9444709,27.9376459],[85.9442284,27.9374668],[85.944105,27.9373921],[85.9438531,27.9372809],[85.9435062,27.9370631],[85.9423945,27.936383],[85.9408471,27.9355433],[85.9403923,27.9354758],[85.9398021,27.9350478],[85.9396517,27.9346801],[85.9393261,27.9341255],[85.9389043,27.9335944],[85.938489,27.9327036],[85.937975,27.9322085],[85.9373775,27.9314113],[85.9373331,27.9313044],[85.9364633,27.9303379],[85.9359696,27.9302924],[85.9357017,27.9300439],[85.9352762,27.929365],[85.9349579,27.928346],[85.9345896,27.9262771],[85.9348157,27.9255447],[85.9349714,27.9247075],[85.9345761,27.9241504],[85.9335542,27.9234475],[85.9332829,27.92325],[85.9328581,27.9229408],[85.9327174,27.9228384],[85.9319834,27.9221724],[85.9315597,27.9216681],[85.9299118,27.9202077],[85.9289355,27.9187478],[85.9290588,27.9169655],[85.9285463,27.9162799],[85.9282649,27.9160601],[85.9279001,27.9155198],[85.9271598,27.9147708],[85.9255613,27.9144295],[85.9243596,27.9135762],[85.9235871,27.912998],[85.9235245,27.9118485],[85.9233457,27.9116019],[85.9229798,27.9110849],[85.9229373,27.9109532],[85.9228511,27.9108017],[85.9226058,27.9103932],[85.9223721,27.9099333],[85.9221627,27.9093223],[85.921656,27.9081437],[85.9212483,27.9078688],[85.9205294,27.9076697],[85.9191561,27.9072241],[85.9186412,27.9061717],[85.9186865,27.9058412],[85.918727,27.9055459],[85.9184695,27.904996],[85.9172464,27.9043702],[85.9167743,27.9030618],[85.916946,27.9022843],[85.9167529,27.9013361],[85.9159589,27.9001414],[85.9151006,27.8994967],[85.913899,27.8980744],[85.913899,27.8974865],[85.9136844,27.8968417],[85.9136692,27.8960617],[85.913663,27.8957418],[85.9131748,27.8952285],[85.912912,27.8937316],[85.9137703,27.8921575],[85.9133197,27.8912661],[85.9130203,27.8907274],[85.9123789,27.8896459],[85.9123997,27.8887957],[85.9124828,27.8880799],[85.9127719,27.887406],[85.9125409,27.8870202],[85.9124446,27.8865437],[85.9121558,27.8858914],[85.9118413,27.8853808],[85.9117772,27.8844845],[85.9107567,27.8842916],[85.9098435,27.8838505],[85.9095211,27.8836503],[85.9092292,27.8834691],[85.9090495,27.8831117],[85.9089856,27.8828382],[85.9089484,27.8826791],[85.9086633,27.8817832],[85.907333,27.8805883],[85.9063795,27.8802383],[85.9062931,27.8802509],[85.905611,27.8800904],[85.9051627,27.8798701],[85.9047577,27.8795595],[85.9039212,27.878995],[85.9007884,27.8776104],[85.899458,27.8777052],[85.898774,27.8773473],[85.8975268,27.8770793],[85.8957887,27.8766051],[85.8944154,27.8760551],[85.8924413,27.8755998],[85.8904436,27.8752953],[85.8889884,27.8748758],[85.888033,27.8745584],[85.8868314,27.8744066],[85.8853723,27.8745015],[85.8842565,27.8744825],[85.8834411,27.8740842],[85.8825398,27.8732875],[85.8821517,27.8729682],[85.8821303,27.8729077],[85.8816708,27.8720831],[85.881188,27.8711346],[85.8813168,27.8697973],[85.8810056,27.8689627],[85.8806939,27.8680079],[85.8796233,27.8668381],[85.8790984,27.866354],[85.8787738,27.8657116],[85.878242,27.8652468],[85.8778192,27.864429],[85.8775885,27.8640677],[85.877645,27.8633613],[85.8774815,27.8631411],[85.8773694,27.8593571],[85.8773685,27.859326],[85.8775656,27.8575646],[85.8774849,27.8569386],[85.8772613,27.8556267],[85.8770155,27.8553254],[85.8772412,27.8548224],[85.8774329,27.8543366],[85.8781839,27.8528568],[85.8786989,27.8521738],[85.879686,27.8512252],[85.8802653,27.8502576],[85.8802439,27.8495557],[85.8799649,27.8487019],[85.8799649,27.8480379],[85.8803726,27.8468046],[85.8802653,27.8455524],[85.8803883,27.8439881],[85.8801178,27.8425429],[85.8800136,27.8415407],[85.8796228,27.840959],[85.8788282,27.8403082],[85.8780596,27.8401642],[85.8775323,27.8399709],[85.8771014,27.839541]],[[85.8771014,27.839541],[85.8769849,27.8389029],[85.876086,27.8384363],[85.8755986,27.8382924],[85.8751678,27.8379496],[85.8749266,27.8374226],[85.8742224,27.836715],[85.8734976,27.8357968],[85.872518,27.8352168],[85.8716851,27.8351245],[85.8713249,27.8352447],[85.8708338,27.8350542],[85.8702478,27.8347571],[85.8698487,27.8344558],[85.8697222,27.834178],[85.8697568,27.8338211],[85.8696032,27.8334394],[85.8692745,27.8331462],[85.8688791,27.8328011],[85.8685647,27.832298],[85.8683926,27.8316929],[85.8682806,27.8313554],[85.8682456,27.8306886],[85.8682853,27.8302641],[85.868343,27.8298671],[85.8686021,27.8294163],[85.8687421,27.8287633],[85.8689367,27.8283628],[85.8693755,27.8277894],[85.869923,27.8274995],[85.8705182,27.8273559],[85.8713205,27.8272206],[85.871589,27.8268417],[85.8720905,27.8264637],[85.8728725,27.8259911],[85.8734115,27.8255052],[85.8739681,27.8249278],[85.8744452,27.8247589],[85.8756081,27.8245668],[85.8757569,27.8242335],[85.8757219,27.8239444],[85.8756277,27.8233925],[85.8756057,27.8232636],[85.8759562,27.8230318],[85.8771589,27.8216369],[85.8778239,27.8202908],[85.8779281,27.8202624],[85.8783784,27.81976],[85.8786538,27.8194424],[85.8790338,27.8191655],[85.8798884,27.8184861],[85.8804262,27.8179723],[85.8808847,27.8175922],[85.8812232,27.8173035],[85.8814009,27.8171272],[85.8814753,27.8169595],[85.8815305,27.8164797],[85.8813582,27.815925],[85.8813021,27.8152816],[85.881682,27.8146138],[85.882037,27.8142969],[85.8827164,27.8140528],[85.8833574,27.8138808],[85.8838615,27.8136642],[85.8840656,27.8135559],[85.8842144,27.8133478],[85.8843104,27.8132183],[85.8842326,27.8129163],[85.8841977,27.8118297],[85.8844034,27.811379],[85.8849528,27.8109254],[85.8854682,27.8099864],[85.8857267,27.8096962],[85.8861134,27.8094965],[85.8865504,27.8093909],[85.8869713,27.8094408],[85.8872008,27.8094069],[85.8874226,27.8093143],[85.8875599,27.8091952],[85.8876537,27.8087391],[85.8877736,27.8083656],[85.8881787,27.8078438],[85.8887076,27.8073589],[85.8892952,27.8067469],[85.8897677,27.8062635],[85.890166,27.8058648],[85.8909216,27.8051516],[85.8912999,27.8046316],[85.8917866,27.8041601],[85.8921236,27.8039234],[85.8924476,27.803669],[85.8926472,27.8034399],[85.8927764,27.8031642],[85.8927874,27.8028898],[85.8925492,27.8025474],[85.8923343,27.8022212],[85.8921553,27.8017677],[85.8920487,27.8010745],[85.8919872,27.8006476],[85.8922563,27.8001074],[85.8929177,27.799873],[85.893473,27.7998226],[85.8938778,27.7996585],[85.8940646,27.7995828],[85.8947362,27.7992339],[85.8951069,27.7989303],[85.8953648,27.7984745],[85.8956498,27.797069],[85.8956476,27.7963165],[85.8955313,27.7951846],[85.8955588,27.7946484],[85.8957265,27.7942242],[85.8958695,27.7939413],[85.8962528,27.7936041],[85.8967359,27.7929689],[85.897071,27.7924426],[85.8971722,27.7918256],[85.8970683,27.7912081],[85.8972078,27.7901125],[85.8972292,27.7898182],[85.8973365,27.7896189],[85.8975296,27.7893911],[85.8977871,27.789002],[85.8981943,27.7886997],[85.898624,27.7881145],[85.8992784,27.7871226],[85.8994742,27.7864701],[85.8993214,27.7858697],[85.8988204,27.7852331],[85.8981686,27.7844643],[85.8977303,27.7836549],[85.897189,27.7829249],[85.8968164,27.78223],[85.8962268,27.7817563],[85.895594,27.7810911],[85.8949965,27.7806662],[85.8946573,27.7804249],[85.8941515,27.7801217],[85.8938777,27.7798893],[85.8935088,27.7797391],[85.8931708,27.7795899],[85.892837,27.7794475]]]},"properties":{"label":"Bhote Koshi mapped river segments","feature_type":"river","historical_reference_ids":[],"source_url":"https://overpass-api.de/api/interpreter","source_feature_id":"way/144807631,way/278789295,way/291801629,way/25141531","source_version":"2026-09-27T00:29:48Z","source_license":"Open Data Commons Open Database License 1.0 (ODbL-1.0), OpenStreetMap contributors","source_license_url":"https://www.openstreetmap.org/copyright","use_conditions":"Attribute OpenStreetMap contributors and identify ODbL-1.0. Adapted database distributions remain subject to ODbL share-alike terms.","source_artifact_path":"demo/datasets/bhotekoshi-2016-exercise-v1/context/geographic-inputs/overpass-corridor-20260927.json.gz","source_artifact_sha256":"05acd03d5dd42fd7882f7acba2f5be509fa9c509259ea9f6e1e43aaaa18ed9d7","country_codes":["NP","CN"],"coordinate_precision_m":null,"retrieved_at":"2026-09-27T00:45:31Z","geometry_epoch":"2026-09-27","uncertainty_m":null,"limitations":"Current OSM linework assembled as separate mapped ways; no measured 2016 flood extent, flow depth, discharge or continuous upstream geometry is claimed."}},{"type":"Feature","id":"geo-000002","geometry":{"type":"Point","coordinates":[85.9568747,27.9646238]},"properties":{"label":"Kodari","feature_type":"settlement","historical_reference_ids":["hist-000001","hist-000002"],"source_url":"https://overpass-api.de/api/interpreter","source_feature_id":"node/2257810269","source_version":"2026-09-27T00:29:48Z","source_license":"Open Data Commons Open Database License 1.0 (ODbL-1.0), OpenStreetMap contributors","source_license_url":"https://www.openstreetmap.org/copyright","use_conditions":"Attribute OpenStreetMap contributors and identify ODbL-1.0. Adapted database distributions remain subject to ODbL share-alike terms.","source_artifact_path":"demo/datasets/bhotekoshi-2016-exercise-v1/context/geographic-inputs/overpass-corridor-20260927.json.gz","source_artifact_sha256":"05acd03d5dd42fd7882f7acba2f5be509fa9c509259ea9f6e1e43aaaa18ed9d7","country_codes":["NP"],"coordinate_precision_m":null,"retrieved_at":"2026-09-27T00:45:31Z","geometry_epoch":"2026-09-27","uncertainty_m":null,"limitations":"Current mapped settlement node. Coordinate accuracy and exact 2016 built-up extent are unknown; this is an anchor, not an approved reporting zone."}},{"type":"Feature","id":"geo-000003","geometry":{"type":"Point","coordinates":[85.9490115,27.9448408]},"properties":{"label":"Tatopani","feature_type":"settlement","historical_reference_ids":["hist-000001","hist-000002"],"source_url":"https://overpass-api.de/api/interpreter","source_feature_id":"node/296349536","source_version":"2026-09-27T00:29:48Z","source_license":"Open Data Commons Open Database License 1.0 (ODbL-1.0), OpenStreetMap contributors","source_license_url":"https://www.openstreetmap.org/copyright","use_conditions":"Attribute OpenStreetMap contributors and identify ODbL-1.0. Adapted database distributions remain subject to ODbL share-alike terms.","source_artifact_path":"demo/datasets/bhotekoshi-2016-exercise-v1/context/geographic-inputs/overpass-corridor-20260927.json.gz","source_artifact_sha256":"05acd03d5dd42fd7882f7acba2f5be509fa9c509259ea9f6e1e43aaaa18ed9d7","country_codes":["NP"],"coordinate_precision_m":null,"retrieved_at":"2026-09-27T00:45:31Z","geometry_epoch":"2026-09-27","uncertainty_m":null,"limitations":"Current mapped settlement node. Coordinate accuracy and exact 2016 built-up extent are unknown; this is an anchor, not an approved reporting zone."}},{"type":"Feature","id":"geo-000004","geometry":{"type":"Point","coordinates":[85.899582,27.787806]},"properties":{"label":"Bahrabise","feature_type":"settlement","historical_reference_ids":["hist-000001","hist-000002"],"source_url":"https://overpass-api.de/api/interpreter","source_feature_id":"node/2257810264","source_version":"2026-09-27T00:29:48Z","source_license":"Open Data Commons Open Database License 1.0 (ODbL-1.0), OpenStreetMap contributors","source_license_url":"https://www.openstreetmap.org/copyright","use_conditions":"Attribute OpenStreetMap contributors and identify ODbL-1.0. Adapted database distributions remain subject to ODbL share-alike terms.","source_artifact_path":"demo/datasets/bhotekoshi-2016-exercise-v1/context/geographic-inputs/overpass-corridor-20260927.json.gz","source_artifact_sha256":"05acd03d5dd42fd7882f7acba2f5be509fa9c509259ea9f6e1e43aaaa18ed9d7","country_codes":["NP"],"coordinate_precision_m":null,"retrieved_at":"2026-09-27T00:45:31Z","geometry_epoch":"2026-09-27","uncertainty_m":null,"limitations":"Current mapped settlement node. Coordinate accuracy and exact 2016 built-up extent are unknown; this is an anchor, not an approved reporting zone."}},{"type":"Feature","id":"geo-000005","geometry":{"type":"Point","coordinates":[85.8269035,27.7543053]},"properties":{"label":"Khadichaur","feature_type":"settlement","historical_reference_ids":["hist-000001","hist-000002","hist-000003"],"source_url":"https://overpass-api.de/api/interpreter","source_feature_id":"node/11182726261","source_version":"2026-09-27T00:29:48Z","source_license":"Open Data Commons Open Database License 1.0 (ODbL-1.0), OpenStreetMap contributors","source_license_url":"https://www.openstreetmap.org/copyright","use_conditions":"Attribute OpenStreetMap contributors and identify ODbL-1.0. Adapted database distributions remain subject to ODbL share-alike terms.","source_artifact_path":"demo/datasets/bhotekoshi-2016-exercise-v1/context/geographic-inputs/overpass-corridor-20260927.json.gz","source_artifact_sha256":"05acd03d5dd42fd7882f7acba2f5be509fa9c509259ea9f6e1e43aaaa18ed9d7","country_codes":["NP"],"coordinate_precision_m":null,"retrieved_at":"2026-09-27T00:45:31Z","geometry_epoch":"2026-09-27","uncertainty_m":null,"limitations":"Current mapped settlement node. Coordinate accuracy and exact 2016 built-up extent are unknown; this is an anchor, not an approved reporting zone."}}]}
