{"type":"FeatureCollection","features":[{"type":"Feature","properties":{"name":""},"geometry":{"type":"LineString","coordinates":[[85.4325,30.0245],[85.4526,30.0369],[85.4795,30.0787],[85.4946,30.0934],[85.5192,30.0987],[85.543,30.0931],[85.5671,30.0843],[85.5938,30.0797],[85.605,30.0825],[85.6211,30.0955],[85.6306,30.0996],[85.6425,30.0997],[85.6638,30.0947],[85.6755,30.0934],[85.691,30.1036],[85.7022,30.1234],[85.7161,30.1365],[85.7403,30.1269],[85.8059,30.1599],[85.8234,30.1814],[85.8611,30.2176],[85.8782,30.2299],[85.9205,30.2391],[85.9389,30.2477],[85.9464,30.2681],[85.9511,30.2908],[85.9576,30.309],[85.9553,30.3247],[85.9327,30.3398],[85.8926,30.3493],[85.8774,30.3582],[85.8666,30.3959],[85.8551,30.4158],[85.7992,30.4827],[85.7803,30.4983]]}},{"type":"Feature","properties":{"name":""},"geometry":{"type":"LineString","coordinates":[[83.6969,30.4951],[83.6912,30.4888],[83.6826,30.4842],[83.6716,30.477],[83.6472,30.4509],[83.6306,30.4403],[83.5854,30.4313],[83.5693,30.42],[83.5413,30.395],[83.5073,30.3746],[83.5007,30.3677],[83.4903,30.3516],[83.4829,30.3432],[83.4628,30.3264],[83.4472,30.3184],[83.3818,30.3103],[83.3599,30.3043],[83.3428,30.2931],[83.3359,30.2747],[83.3307,30.2547],[83.3052,30.2235],[83.2955,30.2032],[83.29,30.1825],[83.2906,30.1739],[83.2955,30.1617],[83.3037,30.1521],[83.3247,30.1357],[83.329,30.1238],[83.3379,30.1092],[83.3906,30.0587],[83.401,30.0546],[83.4216,30.0501],[83.4314,30.045],[83.4356,30.038],[83.4407,30.0267],[83.4472,30.0161],[83.4553,30.0114],[83.4658,30.0108],[83.4732,30.0082],[83.4778,30.0028],[83.4791,29.9935],[83.4828,29.9808],[83.4916,29.976],[83.5027,29.974],[83.5134,29.9698],[83.52,29.9644],[83.5274,29.9564],[83.5328,29.9466],[83.5356,29.9395]]}},{"type":"Feature","properties":{"name":"Gandak"},"geometry":{"type":"LineString","coordinates":[[83.9631,29.2002],[83.9609,29.1373],[83.955,29.1087],[83.9238,29.0312],[83.9132,29.0147],[83.8984,28.9978],[83.8816,28.983],[83.8645,28.973],[83.8364,28.9639],[83.8303,28.9603],[83.8261,28.9545],[83.8233,28.9453],[83.8224,28.9317],[83.8184,28.9191],[83.7883,28.8868],[83.7812,28.8666],[83.773,28.8249],[83.7642,28.8082],[83.7504,28.7962],[83.7202,28.7767],[83.7057,28.7639],[83.6685,28.7206],[83.6152,28.6873],[83.6025,28.6745],[83.589,28.654],[83.6165,28.6287],[83.6304,28.6126],[83.6368,28.5987],[83.6352,28.5787],[83.6304,28.5643],[83.6298,28.5511],[83.6402,28.5342],[83.649,28.5042],[83.6316,28.475],[83.6057,28.4471],[83.589,28.4213],[83.5951,28.409],[83.5879,28.3955],[83.5762,28.381],[83.5686,28.366],[83.5693,28.3477],[83.5767,28.333],[83.5958,28.3046],[83.6235,28.2498],[83.6428,28.2303],[83.6716,28.2158],[83.6619,28.2022],[83.6401,28.1778],[83.6306,28.1605],[83.6279,28.1522],[83.6255,28.1394],[83.6232,28.1339],[83.6181,28.1263],[83.5708,28.0819],[83.5617,28.0712],[83.5552,28.0651],[83.5494,28.0612],[83.5464,28.0556],[83.5475,28.0445],[83.5524,28.0338],[83.5591,28.0323],[83.5669,28.0333],[83.5755,28.0302],[83.5897,28.0037],[83.5751,27.9817],[83.5435,27.9667],[83.5073,27.9613],[83.4773,27.968],[83.4602,27.9688],[83.4451,27.9613],[83.4387,27.9479],[83.448,27.9392],[83.4647,27.9313],[83.4791,27.9204],[83.4905,27.931],[83.502,27.9325],[83.5309,27.9278],[83.5596,27.9285],[83.5761,27.9265],[83.589,27.9204],[83.6007,27.9205],[83.6362,27.909],[83.6436,27.9104],[83.6616,27.9195],[83.7424,27.9203],[83.7662,27.9178],[83.7832,27.9092],[83.8111,27.8835],[83.8252,27.8762],[83.835,27.8769],[83.8583,27.8848],[83.8694,27.8867],[83.8831,27.8853],[83.9101,27.8794],[83.9238,27.8781],[83.9475,27.8837],[83.9922,27.9059],[84.0168,27.9083],[84.037,27.9007],[84.073,27.8736],[84.0923,27.8628],[84.1349,27.8542],[84.2251,27.8532],[84.2681,27.8459],[84.2857,27.8371],[84.2913,27.8269],[84.292,27.8142],[84.2949,27.7974],[84.3002,27.7894],[84.3134,27.7818],[84.3159,27.7733],[84.3171,27.7641],[84.3211,27.7593],[84.3274,27.7572],[84.3364,27.7565],[84.3481,27.7613],[84.3598,27.7725],[84.3735,27.7824],[84.3909,27.7838],[84.401,27.7752],[84.4125,27.7581],[84.4219,27.7402],[84.4258,27.7286],[84.4215,27.7139],[84.4119,27.7031],[84.3842,27.6876],[84.3562,27.6968],[84.331,27.6857],[84.3057,27.6685],[84.2779,27.6597],[84.2618,27.6612],[84.2496,27.6638],[84.2388,27.6643],[84.2266,27.6597],[84.208,27.6354],[84.1956,27.6267],[84.1787,27.6329],[84.1563,27.6094],[84.1152,27.5489],[84.103,27.5367],[84.0689,27.5579],[84.0488,27.546],[84.0263,27.544],[83.9588,27.5522],[83.9469,27.5523],[83.9385,27.5504],[83.9307,27.5438],[83.9252,27.5349],[83.9254,27.5271],[83.9351,27.5237],[83.9561,27.5235],[83.9594,27.5187],[83.9484,27.5064],[83.9409,27.4952],[83.9407,27.4838],[83.9418,27.4724],[83.9385,27.4617],[83.9225,27.4502],[83.8995,27.4441],[83.8533,27.4412],[83.8338,27.4342],[83.8423,27.4183],[83.8709,27.3897],[83.8732,27.3802],[83.8772,27.3701],[83.877,27.362],[83.8672,27.3587],[83.8613,27.3547],[83.8543,27.3453],[83.843,27.3245],[83.8411,27.303],[83.8515,27.2894],[83.8645,27.2788],[83.8709,27.2664],[83.8806,27.2615],[83.9254,27.2485],[83.9385,27.2351],[83.9385,27.2425],[83.9502,27.215],[83.9714,27.1984],[84.0204,27.1737],[84.0332,27.1544],[84.0489,27.1031],[84.0689,27.0843],[84.108,27.0926],[84.1435,27.0638],[84.1707,27.0196],[84.1856,26.9819],[84.1968,26.9402],[84.2055,26.9215],[84.2163,26.9136],[84.2293,26.9086],[84.2817,26.8795],[84.2909,26.8606],[84.2983,26.8351],[84.3085,26.8128],[84.3389,26.7967],[84.3499,26.7808],[84.3587,26.7611],[84.3723,26.6986],[84.3825,26.6811],[84.4013,26.674],[84.4155,26.6644],[84.4174,26.6194],[84.4258,26.6051],[84.5037,26.6051],[84.5191,26.5982],[84.5244,26.5815],[84.5276,26.5436],[84.537,26.5263],[84.5527,26.506],[84.5704,26.4892],[84.5906,26.48],[84.5986,26.475],[84.6088,26.4702],[84.6204,26.468],[84.6318,26.4698],[84.6539,26.4759],[84.6653,26.4748],[84.6843,26.4615],[84.7234,26.4034],[84.7566,26.3666]]}},{"type":"Feature","properties":{"name":"Maquan"},"geometry":{"type":"LineString","coordinates":[[82.4005,30.4114],[82.418,30.4208],[82.4391,30.4244],[82.459,30.4241],[82.4723,30.4224],[82.517,30.4088],[82.5392,30.398],[82.5577,30.3841],[82.5686,30.3683],[82.5757,30.3626],[82.5891,30.3603],[82.6414,30.3787],[82.646,30.3816],[82.6513,30.3825],[82.6642,30.3807],[82.6692,30.3782],[82.6748,30.3738],[82.6829,30.3696],[82.7227,30.3651],[82.7529,30.3594],[82.7692,30.3585],[82.7877,30.3603],[82.835,30.3714],[82.8593,30.373],[82.8696,30.364],[82.8933,30.3323],[82.9067,30.3277],[82.9127,30.3168],[82.9175,30.2914],[82.9254,30.2685],[82.9336,30.2514],[82.9458,30.2374],[82.9653,30.2237],[82.9942,30.2125],[83.0372,30.1847],[83.0444,30.1815],[83.0662,30.1804],[83.0747,30.1786],[83.082,30.1753],[83.0872,30.1686],[83.0904,30.1595],[83.0955,30.1514],[83.1316,30.142],[83.1499,30.1309],[83.1677,30.1249],[83.1919,30.1343],[83.199,30.1123],[83.218,30.0972],[83.2379,30.0862],[83.2471,30.0764],[83.2524,30.0729],[83.2639,30.0721],[83.2765,30.0734],[83.2847,30.0764],[83.2931,30.0765],[83.3054,30.0704],[83.3228,30.0587],[83.3629,30.0495],[83.3823,30.0415],[83.3906,30.0282],[83.3958,30.0047],[83.4098,29.9915],[83.4519,29.9767],[83.5005,29.9471],[83.5374,29.9385],[83.5554,29.9275],[83.589,29.8941],[83.6002,29.8799],[83.6045,29.8776],[83.6266,29.8714],[83.7066,29.8622],[83.7266,29.8559],[83.7539,29.8426],[83.7609,29.8333],[83.8175,29.8154],[83.9801,29.7364],[83.9688,29.7313],[83.96,29.7242],[83.9541,29.7147],[83.9522,29.7023],[83.9763,29.658],[83.982,29.6504],[83.9895,29.6331],[83.9966,29.6238],[84.0068,29.616],[84.0347,29.6061],[84.0872,29.5702],[84.1065,29.5658],[84.1664,29.5789],[84.1856,29.5795],[84.1983,29.5772],[84.2051,29.5751],[84.2197,29.5658],[84.2293,29.5479],[84.2377,29.5414],[84.2504,29.5484],[84.2613,29.5484],[84.3088,29.5399],[84.4161,29.5352],[84.461,29.526],[84.4933,29.5106],[84.5105,29.4759],[84.5039,29.4328],[84.4888,29.3883],[84.4804,29.3495],[84.4846,29.3433],[84.5029,29.3319],[84.5071,29.3222],[84.5048,29.3145],[84.5005,29.3058],[84.4988,29.2967],[84.5037,29.2877],[84.5244,29.2762],[84.5662,29.2684],[84.5828,29.2574],[84.5907,29.2639],[84.5959,29.2724],[84.5997,29.2803],[84.6033,29.2846],[84.6179,29.2885],[84.6272,29.2856],[84.6358,29.2805],[84.6657,29.2753],[84.7199,29.2574],[84.7763,29.2244],[84.792,29.2263],[84.8137,29.2341],[84.8379,29.2294],[84.9225,29.1901],[84.9638,29.1861],[85.0012,29.1986],[85.0352,29.2294],[85.0361,29.2339],[85.0342,29.246],[85.0352,29.2505],[85.0405,29.2545],[85.0457,29.2552],[85.0505,29.2554],[85.0551,29.2574],[85.0717,29.2689],[85.0831,29.2751],[85.1113,29.2847],[85.1441,29.3165],[85.165,29.3256],[85.2349,29.3195],[85.251,29.315],[85.2651,29.3046],[85.3076,29.2832],[85.3227,29.2778],[85.3917,29.2806],[85.4087,29.2744],[85.4236,29.2653],[85.4453,29.2578],[85.4684,29.2525],[85.4871,29.2505],[85.5317,29.2567],[85.5554,29.2565],[85.5733,29.2468],[85.5966,29.2075],[85.6095,29.1915],[85.6306,29.1822],[85.6529,29.1806],[85.7312,29.1922],[85.7631,29.2102],[85.782,29.2164],[85.8042,29.215],[85.8449,29.1997],[85.9464,29.1822],[86.1474,29.1782],[86.1587,29.1794],[86.1695,29.1837],[86.1923,29.197],[86.2244,29.2062],[86.2361,29.2081],[86.2471,29.1976],[86.2597,29.202],[86.2715,29.2097],[86.2754,29.2134],[86.3502,29.2106],[86.3875,29.2238],[86.4111,29.2187],[86.4345,29.2102],[86.4536,29.2073],[86.4678,29.2137],[86.4781,29.2224],[86.4882,29.2268],[86.5014,29.2203],[86.5095,29.2392],[86.5222,29.2347],[86.5357,29.2212],[86.5464,29.2134],[86.5671,29.2112],[86.6069,29.2017],[86.6255,29.1998],[86.6366,29.2019],[86.6563,29.2108],[86.6665,29.2134],[86.9605,29.1794],[87.0064,29.1851],[87.0274,29.1811],[87.0364,29.1626],[87.04,29.1586],[87.0488,29.1552],[87.0588,29.1529],[87.0674,29.152],[87.0792,29.1542],[87.0855,29.1596],[87.0904,29.1664],[87.0986,29.1725],[87.1115,29.1771],[87.1207,29.1767],[87.1555,29.1568],[87.1672,29.1522],[87.1939,29.1452],[87.2192,29.1568],[87.2449,29.1517],[87.2964,29.1309],[87.4094,29.1179],[87.519,29.1247],[87.5466,29.1307],[87.604,29.1505],[87.6254,29.1452],[87.6422,29.1509],[87.6602,29.1516]]}},{"type":"Feature","properties":{"name":"Yarlung"},"geometry":{"type":"LineString","coordinates":[[87.6602,29.1516],[87.6763,29.1542],[87.6875,29.1663],[87.6682,29.2002],[87.6681,29.2178],[87.6838,29.2377],[87.6931,29.2441],[87.7104,29.2523],[87.7179,29.2582],[87.7267,29.2696],[87.7421,29.3023],[87.7763,29.3338],[87.818,29.3476],[87.9067,29.3643],[87.9643,29.395],[87.985,29.399],[88.0414,29.3875],[88.09,29.3837],[88.1052,29.3782],[88.1292,29.3541],[88.149,29.3404],[88.1689,29.3371],[88.1867,29.3414],[88.2014,29.3507],[88.2053,29.3571],[88.2083,29.3654],[88.2126,29.3731],[88.2213,29.378],[88.2343,29.378],[88.2416,29.3731],[88.2485,29.3672],[88.2598,29.3643],[88.2709,29.3654],[88.2905,29.3701]]}},{"type":"Feature","properties":{"name":"Gh\u00e4ghara"},"geometry":{"type":"LineString","coordinates":[[81.061,30.4974],[81.09,30.4766],[81.0987,30.4636],[81.104,30.4003],[81.1064,30.3905],[81.1089,30.3832],[81.1168,30.3684],[81.1225,30.3603],[81.1366,30.3469],[81.1544,30.3334],[81.1699,30.319],[81.1765,30.3023],[81.1774,30.2602],[81.1835,30.2403],[81.1975,30.2237],[81.2067,30.2182],[81.2283,30.2089],[81.2473,30.1973],[81.2692,30.1784],[81.2846,30.168],[81.304,30.1604],[81.3257,30.1558],[81.3484,30.1549],[81.3718,30.1586],[81.4166,30.1723],[81.4408,30.1753],[81.4607,30.1691],[81.4796,30.1542],[81.4954,30.1362],[81.526,30.085],[81.5413,30.0715],[81.5644,30.066],[81.583,30.0639],[81.6363,30.045],[81.6563,30.0423],[81.7285,30.045],[81.7463,30.0369],[81.7586,30.0178],[81.7685,29.9952],[81.7798,29.9767],[81.7981,29.9632],[81.8347,29.9515],[81.8521,29.9388],[81.86,29.9269],[81.8604,29.9182],[81.8574,29.9095],[81.8555,29.8979],[81.857,29.889],[81.8726,29.8525],[81.8753,29.8496],[81.8765,29.8468],[81.876,29.8389],[81.8745,29.8345],[81.8706,29.8311],[81.8692,29.8259],[81.8655,29.8186],[81.8611,29.812],[81.8633,29.8072],[81.8794,29.8054],[81.8892,29.8026],[81.8991,29.796],[81.907,29.7882],[81.9101,29.7818],[81.9155,29.7788],[81.9511,29.7787],[81.9927,29.7644],[82.0066,29.7578],[82.0125,29.7533],[82.0136,29.7467],[82.0131,29.7334],[82.005,29.7189],[81.9861,29.704],[81.9456,29.6818],[81.8787,29.6561],[81.8692,29.644],[81.8588,29.6259],[81.8349,29.6216],[81.8074,29.6226],[81.7871,29.6204],[81.7773,29.6133],[81.7778,29.6077],[81.783,29.6015],[81.7871,29.5925],[81.7882,29.5712],[81.7871,29.5555],[81.7808,29.5345],[81.7647,29.521],[81.7251,29.4975],[81.7147,29.4843],[81.7084,29.468],[81.7055,29.4483],[81.7047,29.4249],[81.709,29.4019],[81.7188,29.3828],[81.7388,29.3529],[81.7433,29.3123],[81.7239,29.2807],[81.6914,29.2562],[81.6575,29.2368],[81.6231,29.2267],[81.6159,29.2232],[81.6133,29.2147],[81.6091,29.1879],[81.6057,29.1822],[81.5925,29.1743],[81.5401,29.1195],[81.4826,29.0831],[81.4682,29.0786],[81.457,29.0707],[81.4098,29.024],[81.4076,29.0031],[81.4146,28.9808],[81.427,28.9629],[81.4408,28.9557],[81.4924,28.8868],[81.5281,28.8526],[81.542,28.8324],[81.5475,28.8082],[81.5557,28.7929],[81.569,28.7809],[81.5718,28.7696],[81.5475,28.7564],[81.5313,28.7506],[81.523,28.7491],[81.513,28.7496],[81.513,28.7564],[81.5255,28.7652],[81.524,28.7709],[81.513,28.7769],[81.5164,28.8082],[81.4732,28.8522],[81.4583,28.8806],[81.4421,28.8985],[81.4255,28.9036],[81.3378,28.8942],[81.3281,28.8971],[81.3048,28.9106],[81.2937,28.9147],[81.2719,28.9157],[81.2075,28.9079],[81.187,28.9129],[81.1355,28.9488],[81.0953,28.967],[81.074,28.9736],[81.054,28.9761],[81.0346,28.9715],[81.0134,28.9605],[80.997,28.947],[80.9921,28.9352],[81.0413,28.8895],[81.0781,28.8629],[81.0947,28.8539],[81.1088,28.8573],[81.1221,28.8643],[81.1355,28.8663],[81.1476,28.8565],[81.1612,28.8299],[81.1703,28.8321],[81.2105,28.8116],[81.2066,28.8245],[81.1943,28.8467],[81.19,28.8594],[81.2046,28.8525],[81.2179,28.8413],[81.2278,28.8264],[81.2333,28.793],[81.2444,28.7615],[81.2769,28.6971],[81.2802,28.6785],[81.2778,28.6585],[81.2681,28.6232],[81.2643,28.5856],[81.2409,28.4912],[81.2285,28.4645],[81.218,28.407],[81.2,28.3812],[81.1939,28.3668],[81.1975,28.3524],[81.19,28.3455],[81.1975,28.3393],[81.1895,28.3309],[81.1719,28.3171],[81.1629,28.3114],[81.1489,28.3221],[81.1236,28.3354],[81.0992,28.3394],[81.0883,28.3223],[81.0855,28.3108],[81.0714,28.2843],[81.0673,28.2705],[81.0654,28.2535],[81.0667,28.2449],[81.1147,28.192],[81.1275,28.1716],[81.1355,28.1475],[81.1318,28.1227],[81.1338,28.1109],[81.1461,28.1059],[81.1599,28.1027],[81.1708,28.0945],[81.1787,28.0833],[81.1838,28.0712],[81.1716,28.0654],[81.163,28.0563],[81.1577,28.0436],[81.1559,28.0271],[81.1638,28.0204],[81.2144,27.9995],[81.2218,27.9881],[81.2305,27.9601],[81.2385,27.9483],[81.2532,27.9416],[81.2715,27.9382],[81.2888,27.9328],[81.2999,27.9204],[81.3004,27.9041],[81.2905,27.8958],[81.2784,27.8888],[81.2727,27.8763],[81.2748,27.8677],[81.2842,27.8531],[81.2864,27.8459],[81.2843,27.8368],[81.2796,27.8299],[81.2749,27.8249],[81.2727,27.8214],[81.2745,27.8066],[81.2812,27.7828],[81.2802,27.7696],[81.2683,27.74],[81.2599,27.7248],[81.2522,27.7149],[81.2729,27.704],[81.293,27.687],[81.3082,27.6661],[81.3141,27.6435],[81.311,27.6229],[81.2993,27.5816],[81.2999,27.5579],[81.3066,27.5387],[81.3316,27.4949],[81.3449,27.4787],[81.3486,27.4705],[81.3547,27.4462],[81.3587,27.4412],[81.3886,27.4215],[81.3963,27.4139],[81.4031,27.3938],[81.405,27.3709],[81.4036,27.3279],[81.4138,27.3102],[81.4353,27.2984],[81.4547,27.2834],[81.4583,27.2562],[81.4522,27.2464],[81.4336,27.2303],[81.4303,27.2221],[81.4355,27.2113],[81.4541,27.1972],[81.4583,27.1842],[81.4551,27.1647],[81.4501,27.1531],[81.449,27.1424],[81.4583,27.1253],[81.4755,27.1058],[81.4788,27.0986],[81.479,27.087],[81.4757,27.0816],[81.4745,27.0769],[81.4822,27.0672],[81.5009,27.0587],[81.5239,27.0596],[81.5475,27.0635],[81.5681,27.0638],[81.6069,27.0471],[81.6973,26.9614],[81.7192,26.9478],[81.7251,26.9409],[81.7305,26.9293],[81.7334,26.9183],[81.738,26.91],[81.7871,26.8966],[81.7887,26.8814],[81.793,26.8738],[81.7993,26.8682],[81.8077,26.8583],[81.8295,26.8207],[81.8437,26.808],[81.8657,26.8031],[81.9138,26.8031],[81.9185,26.8015],[81.9353,26.7932],[81.9456,26.7901],[81.9688,26.7889],[81.9858,26.7938],[82.0131,26.8106],[82.0474,26.8248],[82.0769,26.8456],[82.082,26.8485],[82.0945,26.8531],[82.1223,26.8469],[82.187,26.8192],[82.2086,26.8196],[82.2295,26.8164],[82.2465,26.7969],[82.24,26.7907],[82.2322,26.7757],[82.2254,26.7696],[82.2415,26.7558],[82.28,26.7437],[82.3053,26.7266],[82.3246,26.7171],[82.3283,26.7115],[82.3324,26.7031],[82.3551,26.674],[82.3931,26.656],[82.4185,26.6483],[82.4346,26.6498],[82.4548,26.6608],[82.4756,26.6586],[82.5512,26.6203],[82.5717,26.6138],[82.5922,26.6114],[82.6332,26.6149],[82.649,26.6136],[82.6642,26.6051],[82.679,26.588],[82.689,26.5724],[82.7031,26.5611],[82.7295,26.5567],[82.749,26.5616],[82.7691,26.5715],[82.7903,26.5792],[82.8145,26.5778],[82.88,26.5362],[82.9215,26.5235],[83.0043,26.4761],[83.0127,26.4699],[83.0308,26.4512],[83.0615,26.4099],[83.0766,26.3995],[83.1108,26.389],[83.148,26.3828],[83.1714,26.386],[83.1851,26.38],[83.2305,26.376],[83.2402,26.3686],[83.2516,26.3624],[83.3228,26.3519],[83.3594,26.3282]]}},{"type":"Feature","properties":{"name":"Sapt"},"geometry":{"type":"LineString","coordinates":[[85.7546,28.5516],[85.7507,28.5748],[85.7267,28.6335],[85.7409,28.6519],[85.7632,28.6742],[85.7887,28.6874],[85.813,28.6785],[85.832,28.6691],[85.8557,28.6704],[85.8814,28.6747],[85.9055,28.6751],[85.9475,28.6655],[86.0115,28.6519],[86.044,28.6499],[86.0774,28.654],[86.1028,28.6624],[86.1218,28.6753],[86.134,28.6939],[86.1404,28.7328],[86.1466,28.7447],[86.1563,28.7532],[86.1845,28.7603],[86.1951,28.7696],[86.2037,28.7809],[86.2134,28.7906],[86.2393,28.8039],[86.262,28.8076],[86.3287,28.803],[86.354,28.7976],[86.3787,28.7888],[86.3989,28.7769],[86.4132,28.7584],[86.4192,28.7363],[86.4194,28.6918],[86.4273,28.6695],[86.4463,28.643],[86.4709,28.6196],[86.4951,28.6062],[86.5199,28.6053],[86.5596,28.6221],[86.5805,28.6267],[86.6423,28.6267],[86.6499,28.6249],[86.6523,28.6207],[86.6539,28.6162],[86.6597,28.6131],[86.7515,28.6062],[86.7605,28.6085],[86.7804,28.6182],[86.7925,28.6205],[86.8051,28.6186],[86.8262,28.6094],[86.8372,28.6062],[86.8591,28.607],[86.8823,28.6109],[86.9043,28.6115],[86.9229,28.6025],[86.9317,28.5996],[86.9795,28.5978],[86.9968,28.5935],[87.0084,28.5926],[87.0364,28.5943],[87.0664,28.5996],[87.0947,28.6083],[87.1183,28.6205],[87.1809,28.5987],[87.2223,28.6143],[87.2734,28.6121],[87.3245,28.5997],[87.3648,28.5851],[87.3928,28.5704],[87.4184,28.5519],[87.4644,28.5069],[87.4754,28.5021],[87.5125,28.4998],[87.5221,28.4921],[87.5571,28.4752],[87.5791,28.4615],[87.6052,28.441],[87.6148,28.4225],[87.5634,28.4071],[87.4684,28.338],[87.4653,28.3317],[87.4609,28.3189],[87.4545,28.2823],[87.4507,28.2738],[87.4321,28.2678],[87.3805,28.2722],[87.3579,28.2636],[87.3486,28.2478],[87.3333,28.1986],[87.3306,28.1844],[87.334,28.1727],[87.3404,28.1628],[87.3447,28.1535],[87.3372,28.1322],[87.344,28.1208],[87.3648,28.0991],[87.3696,28.09],[87.3765,28.0682],[87.3784,28.0582],[87.3774,28.0544],[87.3721,28.0438],[87.3716,28.0377],[87.3745,28.0311],[87.3838,28.0192],[87.3858,28.0131],[87.3836,28.0003],[87.3738,27.9782],[87.3716,27.965],[87.3738,27.9587],[87.3836,27.9487],[87.3858,27.9415],[87.3834,27.9349],[87.3732,27.9191],[87.3716,27.9141],[87.3784,27.9043],[87.4041,27.8839],[87.4131,27.8732],[87.4169,27.8599],[87.4194,27.8309],[87.4229,27.8214],[87.4439,27.7918],[87.4426,27.7743],[87.4236,27.764],[87.392,27.7565],[87.3683,27.7547],[87.3627,27.7502],[87.3579,27.736],[87.3696,27.7085],[87.3723,27.6898],[87.3613,27.6814],[87.3306,27.5994],[87.3117,27.5816],[87.2809,27.5778],[87.2472,27.5535],[87.2149,27.5371],[87.2084,27.5272],[87.2037,27.5133],[87.1925,27.5041],[87.1668,27.4896],[87.1489,27.4722],[87.1404,27.4561],[87.1407,27.4379],[87.1493,27.4136],[87.1664,27.3922],[87.1884,27.3724],[87.2021,27.3509],[87.1939,27.3245],[87.2118,27.3076],[87.2141,27.2481],[87.2388,27.2351],[87.2467,27.2241],[87.2717,27.1713],[87.2759,27.1531],[87.2691,27.1429],[87.2166,27.0981],[87.2056,27.0912],[87.1973,27.0821],[87.1939,27.0672],[87.1951,27.0564],[87.1997,27.0377],[87.2009,27.0269],[87.197,27.0119],[87.1881,27.0024],[87.1769,26.9938],[87.1668,26.9819],[87.1626,26.9565],[87.1751,26.903],[87.1699,26.8829],[87.1661,26.8758],[87.1607,26.8548],[87.1599,26.8485],[87.1538,26.8366],[87.1399,26.8262],[87.1121,26.8106],[87.0422,26.7445],[87.0196,26.7354],[87.0039,26.723],[86.9812,26.6392],[86.9666,26.6173],[86.9614,26.6048],[86.9644,26.5948],[86.9677,26.5879],[86.9692,26.5769],[86.9695,26.5653],[86.968,26.5567],[86.9601,26.5464],[86.9379,26.5281],[86.9334,26.5161],[86.9314,26.5045],[86.926,26.4966],[86.8637,26.4605],[86.7546,26.3649],[86.7384,26.3665],[86.7144,26.3575],[86.6913,26.3448],[86.6768,26.3345],[86.6655,26.3292],[86.6504,26.3247],[86.6373,26.3181],[86.6316,26.3066]]}},{"type":"Feature","properties":{"name":"Ganges"},"geometry":{"type":"LineString","coordinates":[[80.0083,27.0269],[80.0125,27.0171],[80.0108,27.0064],[80.0073,26.9957],[80.0051,26.9856],[80.0094,26.9707],[80.0199,26.9572],[80.0899,26.8969],[80.1078,26.8737],[80.115,26.8485],[80.1177,26.8039],[80.1217,26.7814],[80.1282,26.7622],[80.1416,26.7424],[80.1626,26.7226],[80.1861,26.7074],[80.2312,26.696],[80.2451,26.682],[80.2532,26.6621],[80.2621,26.6299],[80.2905,26.5701],[80.2969,26.5487],[80.3058,26.5413],[80.3179,26.5374],[80.3307,26.5362],[80.3364,26.5301],[80.3433,26.5001],[80.3477,26.4884],[80.4033,26.4416],[80.4148,26.4362],[80.4263,26.4323],[80.5099,26.381],[80.526,26.3649],[80.5327,26.3489]]}}]}